H1 CPF  1  DLR 2021 06 16 10  6672 technosat            
H2  1704205 6203    42829 2021 06 16 00 00 00 2021 06 23 00 00 00    60 1 1  0 0 0
H9
10 0 59382  57600.000000  0      -1833563.671      -3134066.990       5943359.354
10 0 59382  57660.000000  0      -1749729.443      -2738666.904       6158812.107
10 0 59382  57720.000000  0      -1655018.746      -2332512.636       6348135.646
10 0 59382  57780.000000  0      -1549743.502      -1917407.639       6510523.781
10 0 59382  57840.000000  0      -1434276.021      -1495190.395       6645284.132
10 0 59382  57900.000000  0      -1309047.733      -1067726.147       6751840.991
10 0 59382  57960.000000  0      -1174547.633       -636898.597       6829737.663
10 0 59382  58020.000000  0      -1031320.420       -204601.630       6878638.361
10 0 59382  58080.000000  0       -879964.322        227268.991       6898329.725
10 0 59382  58140.000000  0       -721128.610        656824.005       6888721.829
10 0 59382  58200.000000  0       -555510.806       1082188.979       6849848.653
10 0 59382  58260.000000  0       -383853.636       1501512.540       6781868.052
10 0 59382  58320.000000  0       -206941.704       1912974.514       6685061.250
10 0 59382  58380.000000  0        -25597.901       2314793.940       6559831.777
10 0 59382  58440.000000  0        159320.396       2705236.825       6406703.928
10 0 59382  58500.000000  0        346925.336       3082623.768       6226320.798
10 0 59382  58560.000000  0        536302.821       3445337.393       6019441.772
10 0 59382  58620.000000  0        726516.933       3791829.498       5786939.499
10 0 59382  58680.000000  0        916614.530       4120627.881       5529796.378
10 0 59382  58740.000000  0       1105630.001       4430342.867       5249100.604
10 0 59382  58800.000000  0       1292590.154       4719673.519       4946041.701
10 0 59382  58860.000000  0       1476519.203       4987413.436       4621905.518
10 0 59382  58920.000000  0       1656443.805       5232455.996       4278068.842
10 0 59382  58980.000000  0       1831398.178       5453799.244       3915993.737
10 0 59382  59040.000000  0       2000429.363       5650550.416       3537221.418
10 0 59382  59100.000000  0       2162602.387       5821929.964       3143365.469
10 0 59382  59160.000000  0       2317005.249       5967274.916       2736104.749
10 0 59382  59220.000000  0       2462754.006       6086041.685       2317176.087
10 0 59382  59280.000000  0       2598997.776       6177808.303       1888366.599
10 0 59382  59340.000000  0       2724923.505       6242275.971       1451505.717
10 0 59382  59400.000000  0       2839760.539       6279270.011       1008457.085
10 0 59382  59460.000000  0       2942785.037       6288740.211        561110.302
10 0 59382  59520.000000  0       3033324.166       6270760.581        111372.551
10 0 59382  59580.000000  0       3110760.088       6225528.503       -338839.884
10 0 59382  59640.000000  0       3174533.655       6153363.202       -787610.139
10 0 59382  59700.000000  0       3224147.777       6054703.621      -1233029.227
10 0 59382  59760.000000  0       3259170.487       5930105.777      -1673204.421
10 0 59382  59820.000000  0       3279237.700       5780239.534      -2106267.591
10 0 59382  59880.000000  0       3284055.608       5605884.800      -2530383.367
10 0 59382  59940.000000  0       3273402.704       5407927.206      -2943757.106
10 0 59382  60000.000000  0       3247131.399       5187353.272      -3344642.628
10 0 59382  60060.000000  0       3205169.252       4945245.123      -3731349.602
10 0 59382  60120.000000  0       3147519.851       4682774.854      -4102250.584
10 0 59382  60180.000000  0       3074263.306       4401198.568      -4455787.798
10 0 59382  60240.000000  0       2985556.323       4101850.023      -4790479.529
10 0 59382  60300.000000  0       2881631.926       3786134.022      -5104926.077
10 0 59382  60360.000000  0       2762798.858       3455519.569      -5397815.334
10 0 59382  60420.000000  0       2629440.596       3111532.781      -5667927.958
10 0 59382  60480.000000  0       2482014.000       2755749.660      -5914142.062
10 0 59382  60540.000000  0       2321047.600       2389788.735      -6135437.500
10 0 59382  60600.000000  0       2147139.557       2015303.596      -6330899.634
10 0 59382  60660.000000  0       1960955.359       1633975.428      -6499722.657
10 0 59382  60720.000000  0       1763225.227       1247505.507      -6641212.498
10 0 59382  60780.000000  0       1554741.221        857607.708      -6754789.294
10 0 59382  60840.000000  0       1336354.044        466001.069      -6839989.459
10 0 59382  60900.000000  0       1108969.514         74402.360      -6896467.320
10 0 59382  60960.000000  0        873544.813       -315481.306      -6923996.217
10 0 59382  61020.000000  0        631084.499       -701959.698      -6922469.134
10 0 59382  61080.000000  0        382636.328      -1083366.521      -6891898.939
10 0 59382  61140.000000  0        129286.867      -1458066.332      -6832418.202
10 0 59382  61200.000000  0       -127843.088      -1824461.254      -6744278.638
10 0 59382  61260.000000  0       -387603.340      -2180997.579      -6627850.203
10 0 59382  61320.000000  0       -648819.312      -2526172.242      -6483619.666
10 0 59382  61380.000000  0       -910297.202      -2858539.029      -6312188.678
10 0 59382  61440.000000  0      -1170829.229      -3176714.462      -6114271.453
10 0 59382  61500.000000  0      -1429199.040      -3479383.455      -5890692.089
10 0 59382  61560.000000  0      -1684187.214      -3765304.712      -5642381.476
10 0 59382  61620.000000  0      -1934576.879      -4033315.844      -5370373.794
10 0 59382  61680.000000  0      -2179159.417      -4282338.218      -5075802.574
10 0 59382  61740.000000  0      -2416740.218      -4511381.421      -4759896.297
10 0 59382  61800.000000  0      -2646144.452      -4719547.337      -4423973.576
10 0 59382  61860.000000  0      -2866222.795      -4906033.824      -4069437.956
10 0 59382  61920.000000  0      -3075857.125      -5070137.985      -3697772.348
10 0 59382  61980.000000  0      -3273966.147      -5211259.033      -3310533.106
10 0 59382  62040.000000  0      -3459510.946      -5328900.720      -2909343.746
10 0 59382  62100.000000  0      -3631500.417      -5422673.288      -2495888.319
10 0 59382  62160.000000  0      -3788996.532      -5492294.949      -2071904.481
10 0 59382  62220.000000  0      -3931119.417      -5537592.867      -1639176.257
10 0 59382  62280.000000  0      -4057052.192      -5558503.639      -1199526.554
10 0 59382  62340.000000  0      -4166045.554      -5555073.259       -754809.455
10 0 59382  62400.000000  0      -4257422.054      -5527456.560       -306902.318
10 0 59382  62460.000000  0      -4330580.077      -5475916.139        142302.238
10 0 59382  62520.000000  0      -4384997.485      -5400820.776        590904.485
10 0 59382  62580.000000  0      -4420234.890      -5302643.329       1037005.810
10 0 59382  62640.000000  0      -4435938.527      -5181958.091       1478716.959
10 0 59382  62700.000000  0      -4431842.696      -5039437.664       1914166.231
10 0 59382  62760.000000  0      -4407771.785      -4875849.374       2341507.574
10 0 59382  62820.000000  0      -4363641.870      -4692051.255       2758928.584
10 0 59382  62880.000000  0      -4299461.882      -4488987.605       3164658.339
10 0 59382  62940.000000  0      -4215334.316      -4267684.170       3556975.064
10 0 59382  63000.000000  0      -4111455.478      -4029242.940       3934213.584
10 0 59382  63060.000000  0      -3988115.255      -3774836.590       4294772.515
10 0 59382  63120.000000  0      -3845696.401      -3505702.586       4637121.103
10 0 59382  63180.000000  0      -3684673.418      -3223137.078       4959805.689
10 0 59382  63240.000000  0      -3505611.005      -2928488.584       5261455.866
10 0 59382  63300.000000  0      -3309162.058      -2623151.485       5540790.261
10 0 59382  63360.000000  0      -3096065.266      -2308559.393       5796621.930
10 0 59382  63420.000000  0      -2867142.288      -1986178.365       6027863.395
10 0 59382  63480.000000  0      -2623294.529      -1657499.990       6233531.220
10 0 59382  63540.000000  0      -2365499.560      -1324034.401       6412750.177
10 0 59382  63600.000000  0      -2094807.074       -987303.205       6564756.944
10 0 59382  63660.000000  0      -1812334.474       -648832.446       6688903.194
10 0 59382  63720.000000  0      -1519262.203       -310145.700       6784658.148
10 0 59382  63780.000000  0      -1216828.870         27242.702       6851610.788
10 0 59382  63840.000000  0       -906326.043        361834.461       6889471.672
10 0 59382  63900.000000  0       -589092.726        692154.015       6898074.232
10 0 59382  63960.000000  0       -266509.580       1016755.086       6877375.542
10 0 59382  64020.000000  0         60007.081       1334227.063       6827456.622
10 0 59382  64080.000000  0        389011.532       1643201.222       6748522.255
10 0 59382  64140.000000  0        719035.086       1942356.722       6640900.208
10 0 59382  64200.000000  0       1048592.653       2230426.295       6505039.987
10 0 59382  64260.000000  0       1376189.452       2506201.699       6341511.143
10 0 59382  64320.000000  0       1700327.817       2768538.897       6151001.092
10 0 59382  64380.000000  0       2019514.111       3016362.983       5934312.455
10 0 59382  64440.000000  0       2332265.712       3248672.778       5692359.899
10 0 59382  64500.000000  0       2637118.058       3464545.094       5426166.477
10 0 59382  64560.000000  0       2932631.711       3663138.639       5136859.415
10 0 59382  64620.000000  0       3217399.313       3843697.460       4825665.346
10 0 59382  64680.000000  0       3490052.368       4005553.915       4493905.208
10 0 59382  64740.000000  0       3749267.947       4148131.327       4142988.808
99
